{
  "type": "FeatureCollection",
  "features": [
    {
      "type": "Feature",
      "properties": {
        "norad_id": 29268,
        "name": "ARIRANG-2 (KOMPSAT-2)",
        "group": "resource",
        "lat": -67.20617108664202,
        "lon": -14.32883047495766,
        "alt_km": 677.6072291811442,
        "timestamp": "2025-12-22T18:58:53.077208+00:00",
        "meta_object_name": "ARIRANG-2 (KOMPSAT-2)",
        "meta_object_id": "2006-031A",
        "meta_epoch": "2025-12-22T07:09:35.922816",
        "meta_mean_motion": 14.6450077,
        "meta_eccentricity": 0.00131462,
        "meta_inclination": 97.8252,
        "meta_ra_of_asc_node": 184.3049,
        "meta_arg_of_pericenter": 276.269,
        "meta_mean_anomaly": 256.9627,
        "meta_ephemeris_type": 0,
        "meta_classification_type": "U",
        "meta_norad_cat_id": 29268,
        "meta_element_set_no": 999,
        "meta_rev_at_epoch": 3558,
        "meta_bstar": 3.4426414e-05,
        "meta_mean_motion_dot": 1.38e-06,
        "meta_mean_motion_ddot": 0,
        "tle_line1": "1 29268U 06031A   25356.29833244  .00000138  00000+0  34426-4 0  9997",
        "tle_line2": "2 29268  97.8252 184.3049 0013146 276.2690 256.9627 14.64500770 35580"
      },
      "geometry": {
        "type": "Point",
        "coordinates": [
          -14.32883047495766,
          -67.20617108664202
        ]
      }
    },
    {
      "type": "Feature",
      "properties": {
        "norad_id": 29709,
        "name": "LAPAN-TUBSAT",
        "group": "resource",
        "lat": -48.11148295792203,
        "lon": 157.98800450225914,
        "alt_km": 627.5962787322396,
        "timestamp": "2025-12-22T18:58:53.077229+00:00",
        "meta_object_name": "LAPAN-TUBSAT",
        "meta_object_id": "2007-001A",
        "meta_epoch": "2025-12-22T05:01:28.024032",
        "meta_mean_motion": 14.85685795,
        "meta_eccentricity": 0.00133633,
        "meta_inclination": 98.1254,
        "meta_ra_of_asc_node": 346.5605,
        "meta_arg_of_pericenter": 46.2956,
        "meta_mean_anomaly": 313.9363,
        "meta_ephemeris_type": 0,
        "meta_classification_type": "U",
        "meta_norad_cat_id": 29709,
        "meta_element_set_no": 999,
        "meta_rev_at_epoch": 2487,
        "meta_bstar": 0.0001482449,
        "meta_mean_motion_dot": 1.23e-05,
        "meta_mean_motion_ddot": 0,
        "tle_line1": "1 29709U 07001A   25356.20935213  .00001230  00000+0  14824-3 0  9998",
        "tle_line2": "2 29709  98.1254 346.5605 0013363  46.2956 313.9363 14.85685795 24872"
      },
      "geometry": {
        "type": "Point",
        "coordinates": [
          157.98800450225914,
          -48.11148295792203
        ]
      }
    },
    {
      "type": "Feature",
      "properties": {
        "norad_id": 31113,
        "name": "HAIYANG-1B",
        "group": "resource",
        "lat": -61.91993727063435,
        "lon": -3.4011790383436873,
        "alt_km": 792.6408450141607,
        "timestamp": "2025-12-22T18:58:53.077250+00:00",
        "meta_object_name": "HAIYANG-1B",
        "meta_object_id": "2007-010A",
        "meta_epoch": "2025-12-22T05:51:00.023328",
        "meta_mean_motion": 14.30968097,
        "meta_eccentricity": 0.00137647,
        "meta_inclination": 98.3325,
        "meta_ra_of_asc_node": 340.1296,
        "meta_arg_of_pericenter": 10.889,
        "meta_mean_anomaly": 349.2589,
        "meta_ephemeris_type": 0,
        "meta_classification_type": "U",
        "meta_norad_cat_id": 31113,
        "meta_element_set_no": 999,
        "meta_rev_at_epoch": 97532,
        "meta_bstar": 5.281912e-05,
        "meta_mean_motion_dot": 9.7e-07,
        "meta_mean_motion_ddot": 0,
        "tle_line1": "1 31113U 07010A   25356.24375027  .00000097  00000+0  52819-4 0  9992",
        "tle_line2": "2 31113  98.3325 340.1296 0013764  10.8890 349.2589 14.30968097975326"
      },
      "geometry": {
        "type": "Point",
        "coordinates": [
          -3.4011790383436873,
          -61.91993727063435
        ]
      }
    },
    {
      "type": "Feature",
      "properties": {
        "norad_id": 31598,
        "name": "COSMO-SKYMED 1",
        "group": "resource",
        "lat": -10.420898058855114,
        "lon": 0.7959523141592015,
        "alt_km": 584.4397850387413,
        "timestamp": "2025-12-22T18:58:53.077269+00:00",
        "meta_object_name": "COSMO-SKYMED 1",
        "meta_object_id": "2007-023A",
        "meta_epoch": "2025-12-22T06:53:41.620992",
        "meta_mean_motion": 14.95835892,
        "meta_eccentricity": 0.00015034,
        "meta_inclination": 97.8839,
        "meta_ra_of_asc_node": 181.7495,
        "meta_arg_of_pericenter": 80.8805,
        "meta_mean_anomaly": 279.2586,
        "meta_ephemeris_type": 0,
        "meta_classification_type": "U",
        "meta_norad_cat_id": 31598,
        "meta_element_set_no": 999,
        "meta_rev_at_epoch": 333,
        "meta_bstar": 0.00032492435,
        "meta_mean_motion_dot": 3.57e-05,
        "meta_mean_motion_ddot": 0,
        "tle_line1": "1 31598U 07023A   25356.28728728  .00003570  00000+0  32492-3 0  9990",
        "tle_line2": "2 31598  97.8839 181.7495 0001503  80.8805 279.2586 14.95835892  3337"
      },
      "geometry": {
        "type": "Point",
        "coordinates": [
          0.7959523141592015,
          -10.420898058855114
        ]
      }
    },
    {
      "type": "Feature",
      "properties": {
        "norad_id": 31698,
        "name": "TERRASAR-X",
        "group": "resource",
        "lat": -30.365890840386427,
        "lon": 6.4190938005406935,
        "alt_km": 515.0666876510631,
        "timestamp": "2025-12-22T18:58:53.077281+00:00",
        "meta_object_name": "TERRASAR-X",
        "meta_object_id": "2007-026A",
        "meta_epoch": "2025-12-21T13:04:48.918432",
        "meta_mean_motion": 15.19155537,
        "meta_eccentricity": 0.0001908,
        "meta_inclination": 97.4453,
        "meta_ra_of_asc_node": 0.797,
        "meta_arg_of_pericenter": 92.2081,
        "meta_mean_anomaly": 267.9372,
        "meta_ephemeris_type": 0,
        "meta_classification_type": "U",
        "meta_norad_cat_id": 31698,
        "meta_element_set_no": 999,
        "meta_rev_at_epoch": 2625,
        "meta_bstar": 3.2984e-05,
        "meta_mean_motion_dot": 6.26e-06,
        "meta_mean_motion_ddot": 0,
        "tle_line1": "1 31698U 07026A   25355.54501063  .00000626  00000+0  32984-4 0  9999",
        "tle_line2": "2 31698  97.4453   0.7970 0001908  92.2081 267.9372 15.19155537 26257"
      },
      "geometry": {
        "type": "Point",
        "coordinates": [
          6.4190938005406935,
          -30.365890840386427
        ]
      }
    },
    {
      "type": "Feature",
      "properties": {
        "norad_id": 32060,
        "name": "WORLDVIEW-1 (WV-1)",
        "group": "resource",
        "lat": 16.182466796932566,
        "lon": -63.71686795272966,
        "alt_km": 496.984551169352,
        "timestamp": "2025-12-22T18:58:53.077293+00:00",
        "meta_object_name": "WORLDVIEW-1 (WV-1)",
        "meta_object_id": "2007-041A",
        "meta_epoch": "2025-12-22T07:14:04.847136",
        "meta_mean_motion": 15.23906733,
        "meta_eccentricity": 0.00033647,
        "meta_inclination": 97.3828,
        "meta_ra_of_asc_node": 113.6449,
        "meta_arg_of_pericenter": 5.192,
        "meta_mean_anomaly": 354.9352,
        "meta_ephemeris_type": 0,
        "meta_classification_type": "U",
        "meta_norad_cat_id": 32060,
        "meta_element_set_no": 999,
        "meta_rev_at_epoch": 1593,
        "meta_bstar": 0.00033477343,
        "meta_mean_motion_dot": 8.019e-05,
        "meta_mean_motion_ddot": 0,
        "tle_line1": "1 32060U 07041A   25356.30144499  .00008019  00000+0  33477-3 0  9992",
        "tle_line2": "2 32060  97.3828 113.6449 0003364   5.1920 354.9352 15.23906733 15939"
      },
      "geometry": {
        "type": "Point",
        "coordinates": [
          -63.71686795272966,
          16.182466796932566
        ]
      }
    },
    {
      "type": "Feature",
      "properties": {
        "norad_id": 32289,
        "name": "YAOGAN-3",
        "group": "resource",
        "lat": -5.840986906889068,
        "lon": -157.48229794188512,
        "alt_km": 602.289852381271,
        "timestamp": "2025-12-22T18:58:53.077303+00:00",
        "meta_object_name": "YAOGAN-3",
        "meta_object_id": "2007-055A",
        "meta_epoch": "2025-12-22T06:52:02.673984",
        "meta_mean_motion": 14.89897513,
        "meta_eccentricity": 0.00010848,
        "meta_inclination": 97.8351,
        "meta_ra_of_asc_node": 22.8247,
        "meta_arg_of_pericenter": 76.1938,
        "meta_mean_anomaly": 283.9401,
        "meta_ephemeris_type": 0,
        "meta_classification_type": "U",
        "meta_norad_cat_id": 32289,
        "meta_element_set_no": 999,
        "meta_rev_at_epoch": 97951,
        "meta_bstar": 0.00018249873,
        "meta_mean_motion_dot": 1.7e-05,
        "meta_mean_motion_ddot": 0,
        "tle_line1": "1 32289U 07055A   25356.28614206  .00001700  00000+0  18250-3 0  9997",
        "tle_line2": "2 32289  97.8351  22.8247 0001084  76.1938 283.9401 14.89897513979514"
      },
      "geometry": {
        "type": "Point",
        "coordinates": [
          -157.48229794188512,
          -5.840986906889068
        ]
      }
    }
  ]
}